OBJECT_NAME,OBJECT_ID,EPOCH,MEAN_MOTION,ECCENTRICITY,INCLINATION,RA_OF_ASC_NODE,ARG_OF_PERICENTER,MEAN_ANOMALY,EPHEMERIS_TYPE,CLASSIFICATION_TYPE,NORAD_CAT_ID,ELEMENT_SET_NO,REV_AT_EPOCH,BSTAR,MEAN_MOTION_DOT,MEAN_MOTION_DDOT
SES-21,2022-123B,2026-06-11T12:37:19.251264,1.00269986,.0000921,0.0262,32.5421,47.6721,237.9742,0,U,53961,999,715,0,.86E-6,0
GALAXY 33 (G-33),2022-128A,2026-06-12T06:27:55.981152,1.00270428,.00016564,0.0069,316.9641,128.1667,139.4650,0,U,54026,999,1369,0,.94E-6,0
GALAXY 34 (G-34),2022-128B,2026-06-12T00:36:30.125088,1.00270187,.00013895,0.0229,347.9398,119.9079,32.6400,0,U,54027,999,1386,0,0,0
LDPE-2,2022-144A,2026-06-12T07:08:56.414688,1.00530018,.0001837,5.6008,63.6898,103.8877,38.2304,0,U,54219,999,1179,0,.142E-5,0
GALAXY 31 (G-31),2022-153A,2026-06-12T05:36:37.398816,1.00269692,.00009899,0.0184,343.3436,91.7257,148.6451,0,U,54243,999,708,0,0,0
GALAXY 32 (G-32),2022-153B,2026-06-12T05:55:20.468352,1.00271343,.00020431,0.0110,12.7086,20.7672,224.9442,0,U,54244,999,1309,0,-.159E-5,0
EUTELSAT 10B,2022-157A,2026-06-11T16:42:54.742752,1.00278962,.00011043,0.0628,104.1683,351.0436,65.5811,0,U,54259,999,1297,0,.86E-6,0
GALAXY 35 (G-35),2022-170A,2026-06-12T05:44:08.190816,1.00270688,.00018649,0.0161,302.5534,141.0978,169.8572,0,U,54741,999,1284,0,-.147E-5,0
GALAXY 36 (G-36),2022-170B,2026-06-12T05:55:57.908064,1.00271601,.00025466,0.0402,131.4856,310.8910,178.2021,0,U,54742,999,1272,0,-.17E-5,0
METEOSAT-12 (MTG-I1),2022-170C,2026-06-12T06:21:11.178144,1.00271774,.00032069,0.7326,22.0862,72.1781,261.2060,0,U,54743,999,1292,0,.7E-7,0
SHIJIAN-23 (SJ-23),2023-002A,2026-06-12T17:36:29.437920,1.00088656,.0003804,3.7055,78.3671,272.1429,325.7246,0,U,55131,999,1246,0,-.215E-5,0
APSTAR-6E,2023-005A,2026-06-10T15:56:29.693184,1.00270607,.00010438,0.0249,253.3859,305.6629,73.1073,0,U,55239,999,1862,0,-.3E-5,0
USA 342,2023-008A,2026-06-10T06:33:40.001760,1.00272706,.0000235,0.0036,23.3608,273.9776,83.6406,0,U,55263,999,1244,0,0,0
LDPE-3A,2023-008B,2026-06-12T05:55:57.908064,0.99145156,.00011107,2.3342,81.7231,62.1519,116.7019,0,U,55264,999,1176,0,-.23E-6,0
AMAZONAS NEXUS,2023-017A,2026-06-11T12:57:17.336736,1.00266544,.00050339,0.0377,34.4009,30.2444,328.5655,0,U,55508,999,698,0,-.266E-5,0
ZHONGXING-26,2023-023A,2026-06-12T06:57:00.803232,1.00273412,.00033408,0.0704,72.0144,12.8819,45.0683,0,U,55686,999,1218,0,-.338E-5,0
LUCH-5X (OLYMP-K 2),2023-031A,2026-06-12T16:54:58.821408,1.00273743,.0000649,0.0260,57.9527,171.9697,346.8348,0,U,55841,999,1189,0,.47E-6,0
SES-18,2023-038A,2026-06-12T06:26:43.582272,1.00271136,.00002342,0.0236,288.1723,19.3892,306.6269,0,U,55970,999,1205,0,-.86E-6,0
SES-19,2023-038B,2026-06-12T05:42:51.664608,1.00272518,.00015158,0.0118,326.9261,118.4329,126.0376,0,U,55971,999,1204,0,.103E-5,0
INTELSAT 40E (IS-40E),2023-052A,2026-06-11T12:48:48.151296,1.00272650,.00020048,0.0184,11.4493,112.2014,237.4225,0,U,56174,999,1176,0,0,0
VIASAT-3 F1,2023-060A,2026-06-11T14:32:01.590144,1.00276196,.00010506,0.0241,328.9826,116.9734,303.0262,0,U,56370,999,1137,0,0,0
ARCTURUS,2023-060B,2026-06-12T03:42:21.621888,1.00272202,.00024002,2.7632,80.0095,45.8905,262.6601,0,U,56371,999,1140,0,-.49E-6,0
GS-1,2023-060C,2026-06-08T15:31:07.690656,1.00277054,.00041256,2.7050,79.9310,279.9950,219.1575,0,U,56372,999,745,0,-.208E-5,0
NVS-01 (IRNSS-1J),2023-076A,2026-06-12T06:58:15.684384,1.00267138,.00031392,2.1783,244.5820,37.5720,212.5796,0,U,56759,999,1106,0,-.318E-5,0
