SES-21                  
1 53961U 22123B   26162.52591726  .00000086  00000+0  00000+0 0  9990
2 53961   0.0262  32.5421 0000921  47.6721 237.9742  1.00269986  7150
GALAXY 33 (G-33)        
1 54026U 22128A   26163.26939793  .00000094  00000+0  00000+0 0  9999
2 54026   0.0069 316.9641 0001656 128.1667 139.4650  1.00270428 13694
GALAXY 34 (G-34)        
1 54027U 22128B   26163.02534867  .00000000  00000+0  00000+0 0  9994
2 54027   0.0229 347.9398 0001389 119.9079  32.6400  1.00270187 13862
LDPE-2                  
1 54219U 22144A   26163.29787517  .00000142  00000+0  00000+0 0  9993
2 54219   5.6008  63.6898 0001837 103.8877  38.2304  1.00530018 11791
GALAXY 31 (G-31)        
1 54243U 22153A   26163.23376619  .00000000  00000+0  00000+0 0  9994
2 54243   0.0184 343.3436 0000989  91.7257 148.6451  1.00269692  7085
GALAXY 32 (G-32)        
1 54244U 22153B   26163.24676468 -.00000159  00000+0  00000+0 0  9997
2 54244   0.0110  12.7086 0002043  20.7672 224.9442  1.00271343 13091
EUTELSAT 10B            
1 54259U 22157A   26162.69646693  .00000086  00000+0  00000+0 0  9990
2 54259   0.0628 104.1683 0001104 351.0436  65.5811  1.00278962 12974
GALAXY 35 (G-35)        
1 54741U 22170A   26163.23898369 -.00000147  00000+0  00000+0 0  9990
2 54741   0.0161 302.5534 0001864 141.0978 169.8572  1.00270688 12847
GALAXY 36 (G-36)        
1 54742U 22170B   26163.24719801 -.00000170  00000+0  00000+0 0  9991
2 54742   0.0402 131.4856 0002546 310.8910 178.2021  1.00271601 12728
METEOSAT-12 (MTG-I1)    
1 54743U 22170C   26163.26471271  .00000007  00000+0  00000+0 0  9998
2 54743   0.7326  22.0862 0003206  72.1781 261.2060  1.00271774 12920
SHIJIAN-23 (SJ-23)      
1 55131U 23002A   26163.73367405 -.00000215  00000+0  00000+0 0  9992
2 55131   3.7055  78.3671 0003804 272.1429 325.7246  1.00088656 12467
APSTAR-6E               
1 55239U 23005A   26161.66423256 -.00000300  00000+0  00000+0 0  9996
2 55239   0.0249 253.3859 0001043 305.6629  73.1073  1.00270607 18626
USA 342                 
1 55263U 23008A   26161.27337965  .00000000  00000+0  00000+0 0  9990
2 55263   0.0036  23.3608 0000235 273.9776  83.6406  1.00272706 12448
LDPE-3A                 
1 55264U 23008B   26163.24719801 -.00000023  00000+0  00000+0 0  9999
2 55264   2.3342  81.7231 0001110  62.1519 116.7019  0.99145156 11767
AMAZONAS NEXUS          
1 55508U 23017A   26162.53978399 -.00000266  00000+0  00000+0 0  9999
2 55508   0.0377  34.4009 0005033  30.2444 328.5655  1.00266544  6985
ZHONGXING-26            
1 55686U 23023A   26163.28959263 -.00000338  00000+0  00000+0 0  9995
2 55686   0.0704  72.0144 0003340  12.8819  45.0683  1.00273412 12188
LUCH-5X (OLYMP-K 2)     
1 55841U 23031A   26163.70484747  .00000047  00000+0  00000+0 0  9990
2 55841   0.0260  57.9527 0000649 171.9697 346.8348  1.00273743 11899
SES-18                  
1 55970U 23038A   26163.26855998 -.00000086  00000+0  00000+0 0  9995
2 55970   0.0236 288.1723 0000234  19.3892 306.6269  1.00271136 12052
SES-19                  
1 55971U 23038B   26163.23809797  .00000103  00000+0  00000+0 0  9998
2 55971   0.0118 326.9261 0001515 118.4329 126.0376  1.00272518 12046
INTELSAT 40E (IS-40E)   
1 56174U 23052A   26162.53389064  .00000000  00000+0  00000+0 0  9998
2 56174   0.0184  11.4493 0002004 112.2014 237.4225  1.00272650 11760
VIASAT-3 F1             
1 56370U 23060A   26162.60557396  .00000000  00000+0  00000+0 0  9998
2 56370   0.0241 328.9826 0001050 116.9734 303.0262  1.00276196 11375
ARCTURUS                
1 56371U 23060B   26163.15441692 -.00000049  00000+0  00000+0 0  9995
2 56371   2.7632  80.0095 0002400  45.8905 262.6601  1.00272202 11408
GS-1                    
1 56372U 23060C   26159.64661679 -.00000208  00000+0  00000+0 0  9991
2 56372   2.7050  79.9310 0004125 279.9950 219.1575  1.00277054  7453
NVS-01 (IRNSS-1J)       
1 56759U 23076A   26163.29045931 -.00000318  00000+0  00000+0 0  9992
2 56759   2.1783 244.5820 0003139  37.5720 212.5796  1.00267138 11068
